NORAD_CAT_ID,OBJECT_NAME,OBJECT_TYPE,EPOCH,MEAN_MOTION,ECCENTRICITY,INCLINATION,RA_OF_ASC_NODE,ARG_OF_PERICENTER,MEAN_ANOMALY,BSTAR,MEAN_MOTION_DOT,MEAN_MOTION_DDOT,TLE_LINE0,TLE_LINE1,TLE_LINE2,SEMIMAJOR_AXIS,PERIOD,APOGEE,PERIGEE,DECAYED
52560.0,STARLINK-3956,PAYLOAD,2022-10-07 10:14:48,15.08806278,0.0001514,53.2183,327.2798,49.4752,310.6372,-0.00015168,-2.699e-05,0.0,0 STARLINK-3956,1 52560U 22051AD  22280.42694485 -.00002699  00000-0 -15168-3 0  9996,2 52560  53.2183 327.2798 0001514  49.4752 310.6372 15.08806278 23059,6917.983,95.44,540.896,538.8009999999998,0.0
52560.0,STARLINK-3956,PAYLOAD,2022-10-07 19:47:06,15.08812887,0.0001453,53.2183,325.4949,49.8859,310.2261,-5.7587e-05,-1.204e-05,0.0,0 STARLINK-3956,1 52560U 22051AD  22280.82438448 -.00001204  00000-0 -57587-4 0  9998,2 52560  53.2183 325.4949 0001453  49.8859 310.2261 15.08812887 23114,6917.9630000000025,95.439,540.8330000000002,538.823,0.0
52560.0,STARLINK-3956,PAYLOAD,2022-10-08 11:40:57,15.08833047,0.0001644,53.2172,322.5214,41.1238,318.9878,0.00013403,1.845e-05,0.0,0 STARLINK-3956,1 52560U 22051AD  22281.48677892  .00001845  00000-0  13403-3 0  9996,2 52560  53.2172 322.5214 0001644  41.1238 318.9878 15.08833047 23214,6917.901999999999,95.438,540.904,538.629,0.0
52560.0,STARLINK-3956,PAYLOAD,2022-10-08 19:37:53,15.08842472,0.000164,53.2173,321.0347,40.8783,319.2332,0.00025772,3.816e-05,0.0,0 STARLINK-3956,1 52560U 22051AD  22281.81797677  .00003816  00000-0  25772-3 0  9999,2 52560  53.2173 321.0347 0001640  40.8783 319.2332 15.08842472 23191,6917.873000000001,95.437,540.872,538.6030000000002,0.0
52560.0,STARLINK-3956,PAYLOAD,2022-10-09 03:34:51,15.08812111,0.0001799,53.2171,319.548,47.1478,312.9665,0.0018451,0.00029176,0.0,0 STARLINK-3956,1 52560U 22051AD  22282.14920283  .00029176  00000-0  18451-2 0  9999,2 52560  53.2171 319.5480 0001799  47.1478 312.9665 15.08812111 23315,6917.965999999999,95.439,541.075,538.586,0.0
52560.0,STARLINK-3956,PAYLOAD,2022-10-09 11:31:44,15.08875504,0.0001573,53.217,318.0623,45.1549,314.9571,0.0013126,0.00020684,0.0,0 STARLINK-3956,1 52560U 22051AD  22282.48037499  .00020684  00000-0  13126-2 0  9993,2 52560  53.2170 318.0623 0001573  45.1549 314.9571 15.08875504 23362,6917.772,95.435,540.725,538.549,0.0
52560.0,STARLINK-3956,PAYLOAD,2022-10-09 19:28:39,15.08869197,0.0001906,53.2163,316.5742,51.9575,308.1589,0.00096302,0.00015084,0.0,0 STARLINK-3956,1 52560U 22051AD  22282.81157272  .00015084  00000-0  96302-3 0  9998,2 52560  53.2163 316.5742 0001906  51.9575 308.1589 15.08869197 23414,6917.791,95.436,540.975,538.3380000000002,0.0
52560.0,STARLINK-3956,PAYLOAD,2022-10-10 06:36:21,15.0885758,0.0001788,53.217,314.4942,29.3384,330.7708,0.00012021,1.626e-05,0.0,0 STARLINK-3956,1 52560U 22051AD  22283.27524695  .00001626  00000-0  12021-3 0  9999,2 52560  53.2170 314.4942 0001788  29.3384 330.7708 15.08857580 23480,6917.8269999999975,95.436,540.929,538.455,0.0
52560.0,STARLINK-3956,PAYLOAD,2022-10-10 11:22:30,15.08858333,0.0001719,53.2168,313.6018,41.2537,318.8585,0.00017537,2.505e-05,0.0,0 STARLINK-3956,1 52560U 22051AD  22283.47396508  .00002505  00000-0  17537-3 0  9995,2 52560  53.2168 313.6018 0001719  41.2537 318.8585 15.08858333 23442,6917.824000000001,95.436,540.879,538.5,0.0
52560.0,STARLINK-3956,PAYLOAD,2022-10-10 19:19:26,15.08854118,0.0001786,53.2166,312.1151,42.548,317.5651,0.00013915,1.928e-05,0.0,0 STARLINK-3956,1 52560U 22051AD  22283.80516429  .00001928  00000-0  13915-3 0  9992,2 52560  53.2166 312.1151 0001786  42.5480 317.5651 15.08854118 23499,6917.837,95.437,540.938,538.467,0.0
52560.0,STARLINK-3956,PAYLOAD,2022-10-11 01:40:58,15.08847228,0.000173,53.216,310.9252,44.108,316.005,2.2425e-05,6.9e-07,0.0,0 STARLINK-3956,1 52560U 22051AD  22284.07012408  .00000069  00000-0  22425-4 0  9992,2 52560  53.2160 310.9252 0001730  44.1080 316.0050 15.08847228 23608,6917.858,95.437,540.92,538.5269999999998,0.0
52560.0,STARLINK-3956,PAYLOAD,2022-10-11 09:37:54,15.08838294,0.0001715,53.2163,309.437,45.4653,314.6479,-0.00015761,-2.795e-05,0.0,0 STARLINK-3956,1 52560U 22051AD  22284.40132832 -.00002795  00000-0 -15761-3 0  9997,2 52560  53.2163 309.4370 0001715  45.4653 314.6479 15.08838294 23655,6917.886,95.438,540.937,538.564,0.0
52560.0,STARLINK-3956,PAYLOAD,2022-10-12 07:53:18,15.08839885,0.0001811999999999,53.217,305.2738,50.6585,309.4567,5.345300000000001e-05,5.63e-06,0.0,0 STARLINK-3956,1 52560U 22051AD  22285.32869091  .00000563  00000-0  53453-4 0  9993,2 52560  53.2170 305.2738 0001812  50.6585 309.4567 15.08839885 23720,6917.880999999999,95.438,540.999,538.492,0.0
52560.0,STARLINK-3956,PAYLOAD,2022-10-13 04:33:19,15.08840284,0.0001909999999999,53.218,301.4095,48.7671,311.3485,9.1383e-05,1.167e-05,0.0,0 STARLINK-3956,1 52560U 22051AD  22286.18981272  .00001167  00000-0  91383-4 0  9999,2 52560  53.2180 301.4095 0001910  48.7671 311.3485 15.08840284 23926,6917.88,95.438,541.066,538.423,0.0
52560.0,STARLINK-3956,PAYLOAD,2022-10-13 09:19:28,15.08857961,0.0001739,53.2176,300.5181,47.6281,312.4858,-0.00033111,-5.557e-05,0.0,0 STARLINK-3956,1 52560U 22051AD  22286.38852972 -.00005557  00000-0 -33111-3 0  9998,2 52560  53.2176 300.5181 0001739  47.6281 312.4858 15.08857961 23950,6917.825,95.436,540.893,538.487,0.0
52560.0,STARLINK-3956,PAYLOAD,2022-10-14 05:59:29,15.08845152,0.0001834,53.2175,296.6514,49.28100000000001,310.8341,0.00016812,2.389e-05,0.0,0 STARLINK-3956,1 52560U 22051AD  22287.24965109  .00002389  00000-0  16812-3 0  9998,2 52560  53.2175 296.6514 0001834  49.2810 310.8341 15.08845152 24089,6917.865,95.437,540.998,538.461,0.0
52560.0,STARLINK-3956,PAYLOAD,2022-10-14 07:34:53,15.08844343,0.0001835,53.2174,296.3540000000001,48.5573,311.5577,0.0001636,2.317e-05,0.0,0 STARLINK-3956,1 52560U 22051AD  22287.31589222  .00002317  00000-0  16360-3 0  9993,2 52560  53.2174 296.3540 0001835  48.5573 311.5577 15.08844343 24027,6917.8669999999975,95.437,541.002,538.4630000000002,0.0
52560.0,STARLINK-3956,PAYLOAD,2022-10-14 17:07:12,15.08840817,0.0001863,53.2172,294.5699,49.0524,311.0629,0.0001268,1.731e-05,0.0,0 STARLINK-3956,1 52560U 22051AD  22287.71333572  .00001731  00000-0  12680-3 0  9992,2 52560  53.2172 294.5699 0001863  49.0524 311.0629 15.08840817 24084,6917.878000000002,95.438,541.0319999999998,538.4540000000002,0.0
52560.0,STARLINK-3956,PAYLOAD,2022-10-15 07:25:40,15.0884101,0.0001924,53.2161,291.8907,48.798,311.3178,2.590800000000001e-05,1.24e-06,0.0,0 STARLINK-3956,1 52560U 22051AD  22288.30949483  .00000124  00000-0  25908-4 0  9995,2 52560  53.2161 291.8907 0001924  48.7980 311.3178 15.08841010 24172,6917.877,95.437,541.073,538.411,0.0
52560.0,STARLINK-3956,PAYLOAD,2022-10-16 00:54:55,15.0883114,0.0001901,53.2152,288.6203,38.9814,321.1315,-0.00016083,-2.846e-05,0.0,0 STARLINK-3956,1 52560U 22051AD  22289.03814286 -.00002846  00000-0 -16083-3 0  9996,2 52560  53.2152 288.6203 0001901  38.9814 321.1315 15.08831140 24352,6917.906999999997,95.438,541.0880000000002,538.457,0.0
52560.0,STARLINK-3956,PAYLOAD,2022-10-16 08:51:51,15.08833453,0.000194,53.2158,287.1336,44.2755,315.8392,-5.67e-05,-1.19e-05,0.0,0 STARLINK-3956,1 52560U 22051AD  22289.36934894 -.00001190  00000-0 -56700-4 0  9992,2 52560  53.2158 287.1336 0001940  44.2755 315.8392 15.08833453 24338,6917.9,95.438,541.107,538.423,0.0
52560.0,STARLINK-3956,PAYLOAD,2022-10-17 00:45:42,15.08841078,0.000193,53.2159,284.1599,44.4842,315.6305,0.00010141,1.326e-05,0.0,0 STARLINK-3956,1 52560U 22051AD  22290.03174171  .00001326  00000-0  10141-3 0  9999,2 52560  53.2159 284.1599 0001930  44.4842 315.6305 15.08841078 24508,6917.877,95.437,541.077,538.4069999999998,0.0
52560.0,STARLINK-3956,PAYLOAD,2022-10-17 08:42:37,15.08845083,0.0001950999999999,53.2159,282.6729,57.4904,302.6277,0.0001544,2.17e-05,0.0,0 STARLINK-3956,1 52560U 22051AD  22290.36293874  .00002170  00000-0  15440-3 0  9992,2 52560  53.2159 282.6729 0001951  57.4904 302.6277 15.08845083 24483,6917.865,95.437,541.08,538.38,0.0
52560.0,STARLINK-3956,PAYLOAD,2022-10-18 03:47:15,15.08847257,0.0001985,53.2164,279.1054,42.0564,318.058,0.00027429,4.081e-05,0.0,0 STARLINK-3956,1 52560U 22051AD  22291.15781943  .00004081  00000-0  27429-3 0  9992,2 52560  53.2164 279.1054 0001985  42.0564 318.0580 15.08847257 24674,6917.858,95.437,541.096,538.35,0.0
52560.0,STARLINK-3956,PAYLOAD,2022-10-18 08:33:25,15.0884351,0.0001855999999999,53.2152,278.2123,42.6508,317.4628,0.00019156,2.762e-05,0.0,0 STARLINK-3956,1 52560U 22051AD  22291.35654051  .00002762  00000-0  19156-3 0  9995,2 52560  53.2152 278.2123 0001856  42.6508 317.4628 15.08843510 24639,6917.87,95.437,541.019,538.451,0.0
52560.0,STARLINK-3956,PAYLOAD,2022-10-18 16:30:20,15.08844977,0.0001976999999999,53.2162,276.7263,51.5224,308.5945,0.00010317,1.354e-05,0.0,0 STARLINK-3956,1 52560U 22051AD  22291.68774039  .00001354  00000-0  10317-3 0  9996,2 52560  53.2162 276.7263 0001977  51.5224 308.5945 15.08844977 24682,6917.865,95.437,541.0980000000002,538.363,0.0
52560.0,STARLINK-3956,PAYLOAD,2022-10-19 05:13:25,15.08841288,0.0001874,53.2164,274.3473,53.978,306.1386,-1.8723e-05,-5.86e-06,0.0,0 STARLINK-3956,1 52560U 22051AD  22292.21766170 -.00000586  00000-0 -18723-4 0  9991,2 52560  53.2164 274.3473 0001874  53.9780 306.1386 15.08841288 24832,6917.876,95.437,541.038,538.445,0.0
52560.0,STARLINK-3956,PAYLOAD,2022-10-19 08:24:12,15.08843806,0.0001908,53.2165,273.7524,54.0553,306.0616,2.133e-05,5.1e-07,0.0,0 STARLINK-3956,1 52560U 22051AD  22292.35014033  .00000051  00000-0  21330-4 0  9993,2 52560  53.2165 273.7524 0001908  54.0553 306.0616 15.08843806 24788,6917.869000000002,95.437,541.054,538.414,0.0
52560.0,STARLINK-3956,PAYLOAD,2022-10-19 17:56:30,15.08851332,0.0001807,53.2174,271.9686,52.7865,307.3292,0.00012461,1.696e-05,0.0,0 STARLINK-3956,1 52560U 22051AD  22292.74757381  .00001696  00000-0  12461-3 0  9996,2 52560  53.2174 271.9686 0001807  52.7865 307.3292 15.08851332 24840,6917.846,95.437,540.961,538.461,0.0
